FLOCK 3P-7              
1 41970U 17008Y   17142.85669866  .00005546  00000-0  24374-3 0  9999
2 41970  97.4981 204.2589 0006714 284.9828  75.0665 15.22301164 14526
FLOCK 3P-5              
1 41971U 17008Z   17142.86297233  .00006401  00000-0  28154-3 0  9997
2 41971  97.4982 204.2522 0006658 284.2748  75.7749 15.22210697 14458
FLOCK 3P-12             
1 41972U 17008AA  17142.92770549  .00003705  00000-0  16425-3 0  9993
2 41972  97.4981 204.3188 0006485 283.9060  76.1455 15.22225695 14619
FLOCK 3P-9              
1 41973U 17008AB  17142.93075360  .00005730  00000-0  25247-3 0  9996
2 41973  97.4983 204.3171 0006677 281.8382  78.2105 15.22194864 14619
FLOCK 3P-10             
1 41974U 17008AC  17142.86041428  .00004492  00000-0  19809-3 0  9998
2 41974  97.4983 204.2581 0006485 283.6623  76.3891 15.22287363 14493
FLOCK 3P-11             
1 41975U 17008AD  17142.86679993  .00005608  00000-0  24773-3 0  9999
2 41975  97.4983 204.2489 0006751 283.1306  76.9176 15.22117914 14496
FLOCK 3P-60             
1 41976U 17008AE  17142.91761693  .00004178  00000-0  18406-3 0  9992
2 41976  97.4983 204.3350 0006406 285.3347  74.7181 15.22367151 13863
FLOCK 3P-58             
1 41977U 17008AF  17142.86151640  .00005135  00000-0  22653-3 0  9995
2 41977  97.4982 204.2545 0006441 284.0955  75.9565 15.22208317 14686
FLOCK 3P-57             
1 41978U 17008AG  17142.86019079  .00006626  00000-0  29063-3 0  9993
2 41978  97.4982 204.2572 0006571 282.4204  77.6296 15.22291443 14525
FLOCK 3P-75             
1 41979U 17008AH  17142.85973515  .00005832  00000-0  25631-3 0  9992
2 41979  97.5004 204.2905 0006828 286.3169  73.7316 15.22273175 14678
FLOCK 3P-70             
1 41980U 17008AJ  17142.85926379  .00006465  00000-0  28363-3 0  9998
2 41980  97.5004 204.2922 0006783 285.4140  74.6347 15.22291591 14528
FLOCK 3P-73             
1 41981U 17008AK  17142.86107258  .00003523  00000-0  15644-3 0  9997
2 41981  97.5005 204.2895 0006923 286.2804  73.7670 15.22196329 14657
FLOCK 3P-88             
1 41982U 17008AL  17142.85756902  .00003727  00000-0  16483-3 0  9991
2 41982  97.5001 204.2905 0006767 286.1285  73.9206 15.22302640 13622
FLOCK 3P-85             
1 41983U 17008AM  17142.91241644  .00003710  00000-0  16362-3 0  9999
2 41983  97.5003 204.3721 0006783 291.1191  68.9319 15.22403537 14539
FLOCK 3P-79             
1 41984U 17008AN  17142.91328016  .00005613  00000-0  24592-3 0  9997
2 41984  97.5004 204.3704 0006421 291.3292  68.7258 15.22401892 14537
FLOCK 3P-86             
1 41985U 17008AP  17142.91424786  .00003690  00000-0  16272-3 0  9998
2 41985  97.5001 204.3676 0006381 290.3546  69.7004 15.22409455 14521
FLOCK 3P-36             
1 41986U 17008AQ  17142.91794520  .00006254  00000-0  27375-3 0  9990
2 41986  97.4986 204.3355 0005974 286.0111  74.0467 15.22385633 14011
FLOCK 3P-30             
1 41987U 17008AR  17142.90992104  .00006760  00000-0  29496-3 0  9996
2 41987  97.4986 204.3472 0006039 289.3801  70.6782 15.22465988 14482
FLOCK 3P-34             
1 41988U 17008AS  17142.92020786  .00006052  00000-0  26518-3 0  9993
2 41988  97.4982 204.3297 0006115 283.1597  76.8956 15.22366965 14018
FLOCK 3P-35             
1 41989U 17008AT  17142.85577257  .00006395  00000-0  28029-3 0  9995
2 41989  97.4981 204.2624 0006245 283.1572  76.8967 15.22331658 14000
FLOCK 3P-33             
1 41990U 17008AU  17142.91683225  .00004376  00000-0  19268-3 0  9999
2 41990  97.4983 204.3352 0005876 285.9716  74.0873 15.22361692 14010
LEMUR-2-SATCHMO         
1 41991U 17008AV  17142.92285654  .00001863  00000-0  84519-4 0  9995
2 41991  97.4981 204.3276 0006298 288.8305  71.2248 15.22072670 14019
LEMUR-2-MIA-GRACE       
1 41992U 17008AW  17142.91672304  .00002569  00000-0  11479-3 0  9995
2 41992  97.4982 204.3373 0006205 289.0811  70.9752 15.22239935 14017
LEMUR-2-SMITA-SHARAD    
1 41993U 17008AX  17142.91957617  .00002389  00000-0  10721-3 0  9998
2 41993  97.4981 204.3327 0006167 288.8533  71.2034 15.22160671 14018
LEMUR-2-SPIRE-MINIONS   
1 41994U 17008AY  17142.91939426  .00003560  00000-0  15815-3 0  9998
2 41994  97.4982 204.3320 0006121 288.4019  71.6552 15.22178672 14017
LEMUR-2-RDEATON         
1 41995U 17008AZ  17142.91780872  .00002376  00000-0  10658-3 0  9992
2 41995  97.4982 204.3359 0007385 304.3479  55.7057 15.22188543 14696
LEMUR-2-NOGUECORREIG    
1 41996U 17008BA  17142.91425262  .00002618  00000-0  11677-3 0  9993
2 41996  97.4983 204.3408 0007357 305.0020  55.0525 15.22279481 13911
LEMUR-2-JOBANPUTRA      
1 41997U 17008BB  17142.91056087  .00002620  00000-0  11654-3 0  9997
2 41997  97.4983 204.3462 0007188 305.0000  55.0561 15.22378004 14004
LEMUR-2-TACHIKOMA       
1 41998U 17008BC  17142.91606692  .00002030  00000-0  91512-4 0  9998
2 41998  97.4982 204.3379 0007398 305.6223  54.4323 15.22187900 13930
BGUSAT                  
1 41999U 17008BD  17142.90751432  .00003200  00000-0  14139-3 0  9990
2 41999  97.4986 204.3531 0007214 307.1878  52.8699 15.22440581 14009
DIDO-2                  
1 42000U 17008BE  17142.91691166  .00001450  00000-0  66325-4 0  9992
2 42000  97.4980 204.3369 0007450 306.3008  53.7539 15.22136848 14016
FLOCK 3P-49             
1 42001U 17008BF  17142.90473260  .00003838  00000-0  16883-3 0  9990
2 42001  97.4983 204.3513 0006858 307.2036  52.8573 15.22462838 14539
FLOCK 3P-67             
1 42002U 17008BG  17142.90914667  .00004210  00000-0  18519-3 0  9995
2 42002  97.4982 204.3438 0006774 306.2860  53.7750 15.22410088 14690
FLOCK 3P-68             
1 42003U 17008BH  17142.91003152  .00005617  00000-0  24633-3 0  9991
2 42003  97.4982 204.3420 0006857 305.4248  54.6347 15.22367555 14338
FLOCK 3P-41             
1 42004U 17008BJ  17142.90157284  .00001646  00000-0  74150-4 0  9995
2 42004  97.4978 204.3492 0006735 309.2278  50.8360 15.22478678 14537
FLOCK 3P-45             
1 42005U 17008BK  17142.90500564  .00005898  00000-0  25791-3 0  9998
2 42005  97.4982 204.3490 0006697 307.6123  52.4504 15.22442753 14699
FLOCK 3P-48             
1 42006U 17008BL  17142.90360707  .00003872  00000-0  17043-3 0  9993
2 42006  97.4982 204.3518 0006618 309.2035  50.8613 15.22445000 14471
FLOCK 3P-43             
1 42007U 17008BM  17142.90173155  .00001487  00000-0  67337-4 0  9995
2 42007  97.4979 204.3512 0006561 309.2912  50.7742 15.22465696 14692
FLOCK 3P-42             
1 42008U 17008BN  17142.90171153  .00002067  00000-0  92394-4 0  9998
2 42008  97.4977 204.3497 0006565 309.1191  50.9461 15.22452463 14615
FLOCK 3P-61             
1 42009U 17008BP  17142.89910296  .00002653  00000-0  11774-3 0  9999
2 42009  97.4979 204.3537 0006551 311.8505  48.2171 15.22451080 14664
FLOCK 3P-40             
1 42010U 17008BQ  17142.89533454  .00001500  00000-0  67800-4 0  9990
2 42010  97.4973 204.3533 0006452 312.8302  47.2392 15.22512634 13927
FLOCK 3P-16             
1 42011U 17008BR  17142.88973068  .00001772  00000-0  79193-4 0  9998
2 42011  97.4975 204.3625 0006156 313.8945  46.1782 15.22648903 13860
FLOCK 3P-14             
1 42012U 17008BS  17142.89029329  .00001525  00000-0  68719-4 0  9990
2 42012  97.4977 204.3641 0006332 316.0229  44.0503 15.22589465 14481
FLOCK 3P-53             
1 42013U 17008BT  17142.89258225  .00001650  00000-0  74193-4 0  9992
2 42013  97.4970 204.3532 0006265 314.5340  45.5384 15.22544075 14487
FLOCK 3P-54             
1 42014U 17008BU  17142.89075148  .00001562  00000-0  70346-4 0  9992
2 42014  97.4974 204.3586 0006184 315.3942  44.6796 15.22578192 14695
PEASSS                  
1 42015U 17008BV  17142.88011016  .00001822  00000-0  81147-4 0  9996
2 42015  97.4970 204.3701 0005426 320.1874  39.8964 15.22745550 14492
AL-FARABI 1             
1 42016U 17008BW  17142.94176106  .00002267  00000-0  99860-4 0  9991
2 42016  97.4973 204.4438 0005308 320.9691  39.1162 15.22855595 14627
NAYIF-1 (EO-88)         
1 42017U 17008BX  17142.94089673  .00002323  00000-0  10222-3 0  9991
2 42017  97.4972 204.4444 0005296 321.3909  38.6948 15.22870245 14644
FLOCK 3P-23             
1 42018U 17008BY  17142.93913483  .00004777  00000-0  21156-3 0  9999
2 42018  97.4974 204.2944 0007099 280.2274  79.8161 15.22109858 13469
FLOCK 3P-76             
1 42019U 17008BZ  17142.92062201  .00006211  00000-0  27184-3 0  9994
2 42019  97.5006 204.3648 0006756 288.6932  71.3570 15.22389248 14523
FLOCK 3P-69             
1 42020U 17008CA  17142.91866955  .00001647  00000-0  74355-4 0  9994
2 42020  97.5003 204.3666 0006688 287.2187  72.8316 15.22401324 13414
FLOCK 3P-84             
1 42021U 17008CB  17142.86011987  .00003973  00000-0  17560-3 0  9994
2 42021  97.5002 204.2877 0006917 286.2280  73.8195 15.22278667 14526
FLOCK 3P-59             
1 42022U 17008CC  17142.92152784  .00003663  00000-0  16219-3 0  9999
2 42022  97.4982 204.3283 0006510 286.7814  73.2708 15.22277899 13554
FLOCK 3P-32             
1 42023U 17008CD  17142.85955672  .00004934  00000-0  21747-3 0  9993
2 42023  97.4983 204.2598 0006359 282.2738  77.7786 15.22255411 14687
FLOCK 3P-71             
1 42024U 17008CE  17142.86032607  .00003481  00000-0  15466-3 0  9996
2 42024  97.5005 204.2918 0006810 286.9341  73.1148 15.22191521 13551
FLOCK 3P-77             
1 42025U 17008CF  17142.85568811  .00001686  00000-0  76256-4 0  9997
2 42025  97.5001 204.2945 0006690 289.0378  71.0133 15.22318976 14522
FLOCK 3P-80             
1 42026U 17008CG  17142.90951909  .00001624  00000-0  73098-4 0  9991
2 42026  97.5000 204.3736 0006414 290.8878  69.1671 15.22524921 12678
FLOCK 3P-66             
1 42027U 17008CH  17142.90999553  .00003458  00000-0  15275-3 0  9998
2 42027  97.4984 204.3450 0006807 304.5492  55.5101 15.22390723 14640
FLOCK 3P-65             
1 42028U 17008CJ  17142.90858392  .00002980  00000-0  13194-3 0  9991
2 42028  97.4981 204.3467 0006810 305.2167  54.8431 15.22430313 14544
